{"type": "FeatureCollection", "features": [ {"type": "Feature", "properties": {"norad_id": 30663, "name": "FENGYUN 1C DEB", "group": "fengyun-1c-debris", "lat": 22.23912315513307, "lon": -94.53736833308194, "alt_km": 1215.4022083515983, "timestamp": "2025-12-18T23:35:49.338375+00:00", "meta": {"OBJECT_NAME": "FENGYUN 1C DEB", "OBJECT_ID": "1999-025APV", "EPOCH": "2025-12-18T05:19:50.710080", "MEAN_MOTION": 13.23160005, "ECCENTRICITY": 0.06485773, "INCLINATION": 99.3034, "RA_OF_ASC_NODE": 268.6217, "ARG_OF_PERICENTER": 123.2469, "MEAN_ANOMALY": 243.2534, "EPHEMERIS_TYPE": 0, "CLASSIFICATION_TYPE": "U", "NORAD_CAT_ID": 30663, "ELEMENT_SET_NO": 999, "REV_AT_EPOCH": 89120, "BSTAR": 0.0017424919, "MEAN_MOTION_DOT": 2.247e-05, "MEAN_MOTION_DDOT": 0}, "tle": {"line1": "1 30663U 99025APV 25352.22211470  .00002247  00000+0  17425-2 0  9994", "line2": "2 30663  99.3034 268.6217 0648577 123.2469 243.2534 13.23160005891208"}}, "geometry": {"type": "Point", "coordinates": [-94.53736833308194, 22.23912315513307]}}, {"type": "Feature", "properties": {"norad_id": 30665, "name": "FENGYUN 1C DEB", "group": "fengyun-1c-debris", "lat": 74.06212592286788, "lon": -69.85777184163443, "alt_km": 858.7263020963055, "timestamp": "2025-12-18T23:35:49.338386+00:00", "meta": {"OBJECT_NAME": "FENGYUN 1C DEB", "OBJECT_ID": "1999-025APX", "EPOCH": "2025-12-17T21:59:41.148672", "MEAN_MOTION": 14.12369633, "ECCENTRICITY": 0.00676021, "INCLINATION": 99.2077, "RA_OF_ASC_NODE": 323.6576, "ARG_OF_PERICENTER": 187.6799, "MEAN_ANOMALY": 229.0199, "EPHEMERIS_TYPE": 0, "CLASSIFICATION_TYPE": "U", "NORAD_CAT_ID": 30665, "ELEMENT_SET_NO": 999, "REV_AT_EPOCH": 96043, "BSTAR": 0.0011508822, "MEAN_MOTION_DOT": 2.121e-05, "MEAN_MOTION_DDOT": 0}, "tle": {"line1": "1 30665U 99025APX 25351.91644848  .00002121  00000+0  11509-2 0  9998", "line2": "2 30665  99.2077 323.6576 0067602 187.6799 229.0199 14.12369633960438"}}, "geometry": {"type": "Point", "coordinates": [-69.85777184163443, 74.06212592286788]}}, {"type": "Feature", "properties": {"norad_id": 30666, "name": "FENGYUN 1C DEB", "group": "fengyun-1c-debris", "lat": 26.7133006271375, "lon": -28.078881323153215, "alt_km": 891.1259167693552, "timestamp": "2025-12-18T23:35:49.338396+00:00", "meta": {"OBJECT_NAME": "FENGYUN 1C DEB", "OBJECT_ID": "1999-025APY", "EPOCH": "2025-12-17T22:02:45.007872", "MEAN_MOTION": 14.02559072, "ECCENTRICITY": 0.00613254, "INCLINATION": 98.822, "RA_OF_ASC_NODE": 335.3725, "ARG_OF_PERICENTER": 129.8637, "MEAN_ANOMALY": 285.3955, "EPHEMERIS_TYPE": 0, "CLASSIFICATION_TYPE": "U", "NORAD_CAT_ID": 30666, "ELEMENT_SET_NO": 999, "REV_AT_EPOCH": 96183, "BSTAR": 0.0002312231, "MEAN_MOTION_DOT": 3.2e-06, "MEAN_MOTION_DDOT": 0}, "tle": {"line1": "1 30666U 99025APY 25351.91857648  .00000320  00000+0  23122-3 0  9997", "line2": "2 30666  98.8220 335.3725 0061325 129.8637 285.3955 14.02559072961832"}}, "geometry": {"type": "Point", "coordinates": [-28.078881323153215, 26.7133006271375]}}, {"type": "Feature", "properties": {"norad_id": 30668, "name": "FENGYUN 1C DEB", "group": "fengyun-1c-debris", "lat": 11.42840135005125, "lon": -111.97928346706335, "alt_km": 823.839020150458, "timestamp": "2025-12-18T23:35:49.338406+00:00", "meta": {"OBJECT_NAME": "FENGYUN 1C DEB", "OBJECT_ID": "1999-025AQA", "EPOCH": "2025-12-18T04:13:42.359808", "MEAN_MOTION": 14.12361711, "ECCENTRICITY": 0.00795356, "INCLINATION": 99.1311, "RA_OF_ASC_NODE": 65.3356, "ARG_OF_PERICENTER": 230.9903, "MEAN_ANOMALY": 157.0494, "EPHEMERIS_TYPE": 0, "CLASSIFICATION_TYPE": "U", "NORAD_CAT_ID": 30668, "ELEMENT_SET_NO": 999, "REV_AT_EPOCH": 96132, "BSTAR": 0.0013057489, "MEAN_MOTION_DOT": 2.433e-05, "MEAN_MOTION_DDOT": 0}, "tle": {"line1": "1 30668U 99025AQA 25352.17618472  .00002433  00000+0  13057-2 0  9990", "line2": "2 30668  99.1311  65.3356 0079535 230.9903 157.0494 14.12361711961320"}}, "geometry": {"type": "Point", "coordinates": [-111.97928346706335, 11.42840135005125]}}, {"type": "Feature", "properties": {"norad_id": 30669, "name": "FENGYUN 1C DEB", "group": "fengyun-1c-debris", "lat": 8.215817506787108, "lon": -71.92500549196615, "alt_km": 960.4089433898025, "timestamp": "2025-12-18T23:35:49.338416+00:00", "meta": {"OBJECT_NAME": "FENGYUN 1C DEB", "OBJECT_ID": "1999-025AQB", "EPOCH": "2025-12-17T18:35:54.587904", "MEAN_MOTION": 14.02743579, "ECCENTRICITY": 0.011797, "INCLINATION": 98.6342, "RA_OF_ASC_NODE": 288.1861, "ARG_OF_PERICENTER": 162.3372, "MEAN_ANOMALY": 228.5109, "EPHEMERIS_TYPE": 0, "CLASSIFICATION_TYPE": "U", "NORAD_CAT_ID": 30669, "ELEMENT_SET_NO": 999, "REV_AT_EPOCH": 95524, "BSTAR": 0.0010723484, "MEAN_MOTION_DOT": 1.722e-05, "MEAN_MOTION_DDOT": 0}, "tle": {"line1": "1 30669U 99025AQB 25351.77493736  .00001722  00000+0  10723-2 0  9997", "line2": "2 30669  98.6342 288.1861 0117970 162.3372 228.5109 14.02743579955245"}}, "geometry": {"type": "Point", "coordinates": [-71.92500549196615, 8.215817506787108]}}, {"type": "Feature", "properties": {"norad_id": 30670, "name": "FENGYUN 1C DEB", "group": "fengyun-1c-debris", "lat": -45.83498184172168, "lon": -151.80931771792885, "alt_km": 874.777745390169, "timestamp": "2025-12-18T23:35:49.338427+00:00", "meta": {"OBJECT_NAME": "FENGYUN 1C DEB", "OBJECT_ID": "1999-025AQC", "EPOCH": "2025-12-18T09:31:57.260064", "MEAN_MOTION": 14.15819568, "ECCENTRICITY": 0.00397376, "INCLINATION": 98.7099, "RA_OF_ASC_NODE": 36.6989, "ARG_OF_PERICENTER": 53.8266, "MEAN_ANOMALY": 67.3341, "EPHEMERIS_TYPE": 0, "CLASSIFICATION_TYPE": "U", "NORAD_CAT_ID": 30670, "ELEMENT_SET_NO": 999, "REV_AT_EPOCH": 97232, "BSTAR": 9.0804197e-05, "MEAN_MOTION_DOT": 1.37e-06, "MEAN_MOTION_DDOT": 0}, "tle": {"line1": "1 30670U 99025AQC 25352.39719051  .00000137  00000+0  90804-4 0  9998", "line2": "2 30670  98.7099  36.6989 0039737  53.8266  67.3341 14.15819568972325"}}, "geometry": {"type": "Point", "coordinates": [-151.80931771792885, -45.83498184172168]}}, {"type": "Feature", "properties": {"norad_id": 30671, "name": "FENGYUN 1C DEB", "group": "fengyun-1c-debris", "lat": 79.55276875301107, "lon": -60.15113883795069, "alt_km": 882.8967497968797, "timestamp": "2025-12-18T23:35:49.338437+00:00", "meta": {"OBJECT_NAME": "FENGYUN 1C DEB", "OBJECT_ID": "1999-025AQD", "EPOCH": "2025-12-17T11:04:57.036864", "MEAN_MOTION": 13.95475762, "ECCENTRICITY": 0.01258502, "INCLINATION": 99.2523, "RA_OF_ASC_NODE": 56.1898, "ARG_OF_PERICENTER": 20.3538, "MEAN_ANOMALY": 353.9446, "EPHEMERIS_TYPE": 0, "CLASSIFICATION_TYPE": "U", "NORAD_CAT_ID": 30671, "ELEMENT_SET_NO": 999, "REV_AT_EPOCH": 95261, "BSTAR": 0.0010782417, "MEAN_MOTION_DOT": 1.519e-05, "MEAN_MOTION_DDOT": 0}, "tle": {"line1": "1 30671U 99025AQD 25351.46177126  .00001519  00000+0  10782-2 0  9997", "line2": "2 30671  99.2523  56.1898 0125850  20.3538 353.9446 13.95475762952614"}}, "geometry": {"type": "Point", "coordinates": [-60.15113883795069, 79.55276875301107]}}, {"type": "Feature", "properties": {"norad_id": 30673, "name": "FENGYUN 1C DEB", "group": "fengyun-1c-debris", "lat": 81.035135846379, "lon": -53.44677440846707, "alt_km": 842.752870815687, "timestamp": "2025-12-18T23:35:49.338447+00:00", "meta": {"OBJECT_NAME": "FENGYUN 1C DEB", "OBJECT_ID": "1999-025AQF", "EPOCH": "2025-12-17T22:20:34.112832", "MEAN_MOTION": 14.03457426, "ECCENTRICITY": 0.00527788, "INCLINATION": 98.9192, "RA_OF_ASC_NODE": 40.9912, "ARG_OF_PERICENTER": 128.3159, "MEAN_ANOMALY": 49.3211, "EPHEMERIS_TYPE": 0, "CLASSIFICATION_TYPE": "U", "NORAD_CAT_ID": 30673, "ELEMENT_SET_NO": 999, "REV_AT_EPOCH": 96604, "BSTAR": -1.7809049e-05, "MEAN_MOTION_DOT": -7.1e-07, "MEAN_MOTION_DDOT": 0}, "tle": {"line1": "1 30673U 99025AQF 25351.93095038 -.00000071  00000+0 -17809-4 0  9995", "line2": "2 30673  98.9192  40.9912 0052778 128.3159  49.3211 14.03457426966043"}}, "geometry": {"type": "Point", "coordinates": [-53.44677440846707, 81.035135846379]}}, {"type": "Feature", "properties": {"norad_id": 30674, "name": "FENGYUN 1C DEB", "group": "fengyun-1c-debris", "lat": -20.767176801389642, "lon": 160.09437555194344, "alt_km": 572.6510525183594, "timestamp": "2025-12-18T23:35:49.338458+00:00", "meta": {"OBJECT_NAME": "FENGYUN 1C DEB", "OBJECT_ID": "1999-025AQG", "EPOCH": "2025-12-18T10:51:12.494016", "MEAN_MOTION": 14.9651807, "ECCENTRICITY": 0.00254394, "INCLINATION": 98.9377, "RA_OF_ASC_NODE": 156.0671, "ARG_OF_PERICENTER": 285.2799, "MEAN_ANOMALY": 74.5607, "EPHEMERIS_TYPE": 0, "CLASSIFICATION_TYPE": "U", "NORAD_CAT_ID": 30674, "ELEMENT_SET_NO": 999, "REV_AT_EPOCH": 97437, "BSTAR": 0.0062621787, "MEAN_MOTION_DOT": 0.00072269, "MEAN_MOTION_DDOT": 0}, "tle": {"line1": "1 30674U 99025AQG 25352.45222794  .00072269  00000+0  62622-2 0  9992", "line2": "2 30674  98.9377 156.0671 0025439 285.2799  74.5607 14.96518070974376"}}, "geometry": {"type": "Point", "coordinates": [160.09437555194344, -20.767176801389642]}}, {"type": "Feature", "properties": {"norad_id": 30675, "name": "FENGYUN 1C DEB", "group": "fengyun-1c-debris", "lat": -54.28329127890171, "lon": 84.49457260428758, "alt_km": 841.86357254016, "timestamp": "2025-12-18T23:35:49.338469+00:00", "meta": {"OBJECT_NAME": "FENGYUN 1C DEB", "OBJECT_ID": "1999-025AQH", "EPOCH": "2025-12-18T03:48:34.932096", "MEAN_MOTION": 14.2744498, "ECCENTRICITY": 0.0053955, "INCLINATION": 98.755, "RA_OF_ASC_NODE": 71.2931, "ARG_OF_PERICENTER": 153.767, "MEAN_ANOMALY": 236.387, "EPHEMERIS_TYPE": 0, "CLASSIFICATION_TYPE": "U", "NORAD_CAT_ID": 30675, "ELEMENT_SET_NO": 999, "REV_AT_EPOCH": 96969, "BSTAR": 0.0012703726, "MEAN_MOTION_DOT": 3.123e-05, "MEAN_MOTION_DDOT": 0}, "tle": {"line1": "1 30675U 99025AQH 25352.15873764  .00003123  00000+0  12704-2 0  9998", "line2": "2 30675  98.7550  71.2931 0053955 153.7670 236.3870 14.27444980969697"}}, "geometry": {"type": "Point", "coordinates": [84.49457260428758, -54.28329127890171]}}]}